NORAD_CAT_ID,OBJECT_NAME,OBJECT_TYPE,EPOCH,MEAN_MOTION,ECCENTRICITY,INCLINATION,RA_OF_ASC_NODE,ARG_OF_PERICENTER,MEAN_ANOMALY,BSTAR,MEAN_MOTION_DOT,MEAN_MOTION_DDOT,TLE_LINE0,TLE_LINE1,TLE_LINE2,SEMIMAJOR_AXIS,PERIOD,APOGEE,PERIGEE,DECAYED
56769.0,STARLINK-5978,PAYLOAD,2024-05-17 13:01:38,14.98340552,0.0003101,69.9999,231.4412,264.5417,95.5388,-1.59e-05,-2.83e-06,0.0,0 STARLINK-5978,1 56769U 23078C   24138.54280362 -.00000283  00000-0 -15900-4 0  9995,2 56769  69.9999 231.4412 0003101 264.5417  95.5388 14.98340552 53419,6950.16,96.106,574.181,569.87,0.0
56769.0,STARLINK-5978,PAYLOAD,2024-05-17 16:13:54,14.98340172,0.0003112,69.9999,231.1045,264.7156,95.3648,-2.5542e-05,-3.98e-06,0.0,0 STARLINK-5978,1 56769U 23078C   24138.67632286 -.00000398  00000-0 -25542-4 0  9995,2 56769  69.9999 231.1045 0003112 264.7156  95.3648 14.98340172 53170,6950.161,96.106,574.189,569.864,0.0
56769.0,STARLINK-5978,PAYLOAD,2024-05-18 13:03:38,14.98337562,0.0003171,69.9996,228.9172,265.6335,94.4461,-5.1669e-05,-7.1e-06,0.0,0 STARLINK-5978,1 56769U 23078C   24139.54420065 -.00000710  00000-0 -51669-4 0  9999,2 56769  69.9996 228.9172 0003171 265.6335  94.4461 14.98337562 53561,6950.17,96.107,574.238,569.831,0.0
56769.0,STARLINK-5978,PAYLOAD,2024-05-18 14:39:46,14.98337446,0.0003179,69.9996,228.7489,265.718,94.3615,-5.2411e-05,-7.18e-06,0.0,0 STARLINK-5978,1 56769U 23078C   24139.61096039 -.00000718  00000-0 -52411-4 0  9991,2 56769  69.9996 228.7489 0003179 265.7180  94.3615 14.98337446 53311,6950.17,96.107,574.244,569.825,0.0
56769.0,STARLINK-5978,PAYLOAD,2024-05-18 22:40:27,14.98324499,0.000297,69.9999,227.9072,263.7731,96.309,0.0001323,1.486e-05,0.0,0 STARLINK-5978,1 56769U 23078C   24139.94476452  .00001486  00000-0  13230-3 0  9994,2 56769  69.9999 227.9072 0002970 263.7731  96.3090 14.98324499 53369,6950.21,96.107,574.139,570.011,0.0
56769.0,STARLINK-5978,PAYLOAD,2024-05-19 13:05:39,14.98330744,0.0003088,69.9998,226.3923,268.1432,91.9374,4.7142e-05,4.7e-06,0.0,0 STARLINK-5978,1 56769U 23078C   24140.54560090  .00000470  00000-0  47142-4 0  9996,2 56769  69.9998 226.3923 0003088 268.1432  91.9374 14.98330744 53450,6950.191,96.107,574.202,569.909,0.0
56769.0,STARLINK-5978,PAYLOAD,2024-05-20 05:07:00,14.98330794,0.0003071,69.9997,224.7087,271.1992,88.8815,4.8847e-05,4.9e-06,0.0,0 STARLINK-5978,1 56769U 23078C   24141.21320093  .00000490  00000-0  48847-4 0  9993,2 56769  69.9997 224.7087 0003071 271.1992  88.8815 14.98330794 53819,6950.19,96.107,574.19,569.921,0.0
56769.0,STARLINK-5978,PAYLOAD,2024-05-20 14:43:49,14.98328471,0.0003067,69.9999,223.6995,268.1143,91.9665,2.2386e-05,1.74e-06,0.0,0 STARLINK-5978,1 56769U 23078C   24141.61376337  .00000174  00000-0  22386-4 0  9998,2 56769  69.9999 223.6995 0003067 268.1143  91.9665 14.98328471 53611,6950.198,96.107,574.194,569.931,0.0
56769.0,STARLINK-5978,PAYLOAD,2024-05-21 05:09:01,14.98329562,0.0002749,69.9999,222.1842,269.029,91.0554,2.0457e-05,1.51e-06,0.0,0 STARLINK-5978,1 56769U 23078C   24142.21460418  .00000151  00000-0  20457-4 0  9991,2 56769  69.9999 222.1842 0002749 269.0290  91.0554 14.98329562 53963,6950.194,96.107,573.97,570.149,0.0
56769.0,STARLINK-5978,PAYLOAD,2024-05-21 14:45:50,14.98328811,0.0003045,70.0,221.175,264.6695,95.4116,1.5514e-05,9.2e-07,0.0,0 STARLINK-5978,1 56769U 23078C   24142.61516351  .00000092  00000-0  15514-4 0  9995,2 56769  70.0000 221.1750 0003045 264.6695  95.4116 14.98328811 53762,6950.197,96.107,574.178,569.945,0.0
56769.0,STARLINK-5978,PAYLOAD,2024-05-22 11:35:34,14.98330716,0.0003142,69.9998,218.9866,266.7333,93.3466,5.705e-05,5.88e-06,0.0,0 STARLINK-5978,1 56769U 23078C   24143.48304120  .00000588  00000-0  57050-4 0  9991,2 56769  69.9998 218.9866 0003142 266.7333  93.3466 14.98330716 54153,6950.191,96.107,574.239,569.872,0.0
56769.0,STARLINK-5978,PAYLOAD,2024-05-23 14:49:51,14.98330912,0.0003186,69.9997,216.125,268.7637,91.3157,4.1602e-05,4.03e-06,0.0,0 STARLINK-5978,1 56769U 23078C   24144.61796077  .00000403  00000-0  41602-4 0  9995,2 56769  69.9997 216.1250 0003186 268.7637  91.3157 14.98330912 54069,6950.19,96.107,574.269,569.841,0.0
56769.0,STARLINK-5978,PAYLOAD,2024-05-24 13:15:44,14.98334058,0.0003182,69.9996,213.7686,268.7457,91.3337,4.4841e-05,4.42e-06,0.0,0 STARLINK-5978,1 56769U 23078C   24145.55259707  .00000442  00000-0  44841-4 0  9994,2 56769  69.9996 213.7686 0003182 268.7457  91.3337 14.98334058 54201,6950.18,96.107,574.257,569.834,0.0
56769.0,STARLINK-5978,PAYLOAD,2024-05-24 14:51:52,14.98334,0.0003191,69.9996,213.6001,269.1495,90.9299,4.3592e-05,4.27e-06,0.0,0 STARLINK-5978,1 56769U 23078C   24145.61935698  .00000427  00000-0  43592-4 0  9996,2 56769  69.9996 213.6001 0003191 269.1495  90.9299 14.98334000 54476,6950.181,96.107,574.263,569.828,0.0
56769.0,STARLINK-5978,PAYLOAD,2024-05-25 11:41:37,14.98329028,0.0003104,69.9997,211.4123,268.1695,91.9108,1.1443e-06,-7.9e-07,0.0,0 STARLINK-5978,1 56769U 23078C   24146.48724032 -.00000079  00000-0  11443-5 0  9995,2 56769  69.9997 211.4123 0003104 268.1695  91.9108 14.98329028 54602,6950.196,96.107,574.218,569.904,0.0
56769.0,STARLINK-5978,PAYLOAD,2024-05-25 13:17:45,14.9832857,0.0003107,69.9997,211.2439,268.2412,91.8392,-4.2133e-06,-1.43e-06,0.0,0 STARLINK-5978,1 56769U 23078C   24146.55400081 -.00000143  00000-0 -42133-5 0  9991,2 56769  69.9997 211.2439 0003107 268.2412  91.8392 14.98328570 54358,6950.197,96.107,574.222,569.903,0.0
56769.0,STARLINK-5978,PAYLOAD,2024-05-26 11:43:38,14.98330512,0.000314,69.9995,208.8874,266.2759,93.8041,-9.9728e-06,-2.12e-06,0.0,0 STARLINK-5978,1 56769U 23078C   24147.48863912 -.00000212  00000-0 -99728-5 0  9999,2 56769  69.9995 208.8874 0003140 266.2759  93.8041 14.98330512 54756,6950.191,96.107,574.239,569.874,0.0
56769.0,STARLINK-5978,PAYLOAD,2024-05-26 13:19:46,14.98330449,0.0003152,69.9995,208.719,266.9724,93.1075,-1.1265e-05,-2.27e-06,0.0,0 STARLINK-5978,1 56769U 23078C   24147.55539919 -.00000227  00000-0 -11265-4 0  9999,2 56769  69.9995 208.7190 0003152 266.9724  93.1075 14.98330449 54500,6950.192,96.107,574.247,569.866,0.0
56769.0,STARLINK-5978,PAYLOAD,2024-05-26 21:20:30,14.98282564,0.0002833,70.0012,207.8814,254.7167,105.3679,-0.00055239,-6.67e-05,0.0,0 STARLINK-5978,1 56769U 23078C   24147.88923952 -.00006670  00000-0 -55239-3 0  9995,2 56769  70.0012 207.8814 0002833 254.7167 105.3679 14.98282564 54552,6950.34,96.11,574.174,570.236,0.0
56769.0,STARLINK-5978,PAYLOAD,2024-05-27 11:45:39,14.98330776,0.000322,69.9994,206.3627,268.4936,91.5855,4.5634e-05,4.52e-06,0.0,0 STARLINK-5978,1 56769U 23078C   24148.49003661  .00000452  00000-0  45634-4 0  9998,2 56769  69.9994 206.3627 0003220 268.4936  91.5855 14.98330776 54901,6950.19,96.107,574.293,569.818,0.0
56769.0,STARLINK-5978,PAYLOAD,2024-05-27 13:21:47,14.98330924,0.0003223,69.9994,206.1944,268.6208,91.4582,4.598e-05,4.56e-06,0.0,0 STARLINK-5978,1 56769U 23078C   24148.55679646  .00000456  00000-0  45980-4 0  9995,2 56769  69.9994 206.1944 0003223 268.6208  91.4582 14.98330924 54651,6950.19,96.107,574.295,569.815,0.0
56769.0,STARLINK-5978,PAYLOAD,2024-05-28 11:47:40,14.98328894,0.0003215,69.9995,203.8384,268.56,91.519,7.0536e-06,-9e-08,0.0,0 STARLINK-5978,1 56769U 23078C   24149.49143853 -.00000009  00000-0  70536-5 0  9996,2 56769  69.9995 203.8384 0003215 268.5600  91.5190 14.98328894 55054,6950.196,96.107,574.296,569.827,0.0
56769.0,STARLINK-5978,PAYLOAD,2024-05-28 13:23:48,14.98328618,0.000323,69.9994,203.67,269.1719,90.907,3.2654e-06,-5.4e-07,0.0,0 STARLINK-5978,1 56769U 23078C   24149.55819882 -.00000054  00000-0  32654-5 0  9994,2 56769  69.9994 203.6700 0003230 269.1719  90.9070 14.98328618 54804,6950.197,96.107,574.307,569.817,0.0
56769.0,STARLINK-5978,PAYLOAD,2024-05-29 11:49:41,14.98330764,0.0003273,69.9992,201.3132,271.3687,88.7097,-3.3559e-06,-1.33e-06,0.0,0 STARLINK-5978,1 56769U 23078C   24150.49283731 -.00000133  00000-0 -33559-5 0  9991,2 56769  69.9992 201.3132 0003273 271.3687  88.7097 14.98330764 55206,6950.191,96.107,574.33,569.781,0.0
56769.0,STARLINK-5978,PAYLOAD,2024-05-29 13:25:49,14.98330906,0.0003284,69.9992,201.1449,271.7244,88.3538,-2.2271e-06,-1.2e-06,0.0,0 STARLINK-5978,1 56769U 23078C   24150.55959716 -.00000120  00000-0 -22271-5 0  9996,2 56769  69.9992 201.1449 0003284 271.7244  88.3538 14.98330906 54955,6950.19,96.107,574.338,569.773,0.0
56769.0,STARLINK-5978,PAYLOAD,2024-05-30 11:51:41,14.98330572,0.0003327,69.9989,198.7875,273.3295,86.7484,3.8771e-05,3.7e-06,0.0,0 STARLINK-5978,1 56769U 23078C   24151.49423608  .00000370  00000-0  38771-4 0  9992,2 56769  69.9989 198.7875 0003327 273.3295  86.7484 14.98330572 55353,6950.191,96.107,574.368,569.744,0.0
56769.0,STARLINK-5978,PAYLOAD,2024-05-30 13:27:50,14.98330846,0.0003323,69.9989,198.6192,273.2279,86.85,4.0919e-05,3.95e-06,0.0,0 STARLINK-5978,1 56769U 23078C   24151.56099582  .00000395  00000-0  40919-4 0  9994,2 56769  69.9989 198.6192 0003323 273.2279  86.8500 14.98330846 55108,6950.19,96.107,574.365,569.746,0.0
56769.0,STARLINK-5978,PAYLOAD,2024-05-31 11:53:42,14.98331337,0.0003257,69.9988,196.2625,272.1621,87.9165,3.3873e-05,3.11e-06,0.0,0 STARLINK-5978,1 56769U 23078C   24152.49563502  .00000311  00000-0  33873-4 0  9994,2 56769  69.9988 196.2625 0003257 272.1621  87.9165 14.98331337 55506,6950.189,96.107,574.317,569.79,0.0
56769.0,STARLINK-5978,PAYLOAD,2024-05-31 19:54:23,14.9833104,0.0003271,69.9987,195.4209,270.3092,89.7692,1.7493e-05,1.16e-06,0.0,0 STARLINK-5978,1 56769U 23078C   24152.82943492  .00000116  00000-0  17493-4 0  9994,2 56769  69.9987 195.4209 0003271 270.3092  89.7692 14.98331040 55294,6950.19,96.107,574.328,569.781,0.0
56769.0,STARLINK-5978,PAYLOAD,2024-06-01 11:55:43,14.98330531,0.0003269,69.9986,193.7379,269.4755,90.603,6.8525e-06,-1.1e-07,0.0,0 STARLINK-5978,1 56769U 23078C   24153.49703492 -.00000011  00000-0  68525-5 0  9990,2 56769  69.9986 193.7379 0003269 269.4755  90.6030 14.98330531 55655,6950.191,96.107,574.328,569.784,0.0
